     3.04           N: GNSS NAV DATA    M: MIXED            RINEX VERSION / TYPE
ssrcrin-15.6.1x                         20250101 130000 UTC PGM / RUN BY / DATE 
    18                                                      LEAP SECONDS        
                                                            END OF HEADER       
S27 2025 01 01 12 57 36 2.034939825535E-07 4.547473508865E-11 3.060050000000E+05
     2.407438776000E+04 3.687500000000E-04 3.875000000000E-07 3.100000000000E+01
     3.460323048000E+04 2.991875000000E-03-1.625000000000E-07 4.096000000000E+03
    -5.591864000000E+02-4.392000000000E-03 3.000000000000E-06 1.800000000000E+02
S28 2025 01 01 12 57 36 6.845220923424E-08 9.094947017729E-12 3.060050000000E+05
     5.073662720000E+03 1.398125000000E-03 2.000000000000E-07 6.300000000000E+01
     4.186799264000E+04 1.163125000000E-03-6.250000000000E-08 3.276700000000E+04
     2.222640000000E+01 5.160000000000E-04-1.250000000000E-07 1.800000000000E+02
S23 2025 01 01 12 58 56 0.000000000000E+00 0.000000000000E+00 3.060060000000E+05
     3.866796400000E+04 0.000000000000E+00 0.000000000000E+00 6.300000000000E+01
     1.681330800000E+04 0.000000000000E+00 0.000000000000E+00 3.276700000000E+04
     0.000000000000E+00 0.000000000000E+00 0.000000000000E+00 1.020000000000E+02
S21 2025 01 01 13 00 00 0.000000000000E+00 0.000000000000E+00 3.060090000000E+05
     4.200468400000E+04 0.000000000000E+00 0.000000000000E+00 6.300000000000E+01
    -3.674932960000E+03 0.000000000000E+00 0.000000000000E+00 3.276700000000E+04
     0.000000000000E+00 0.000000000000E+00 0.000000000000E+00 1.340000000000E+02
R13 2025 01 01 13 15 00-5.500949919224E-05-0.000000000000E+00 3.060000000000E+05
     8.954664550781E+03 1.009159088135E-01-9.313225746155E-10 0.000000000000E+00
     1.518574755859E+04 2.525199890137E+00-1.862645149231E-09-2.000000000000E+00
     1.841752099609E+04-2.127913475037E+00-1.862645149231E-09 0.000000000000E+00
R23 2025 01 01 13 15 00-1.428741961718E-04-9.094947017729E-13 3.060000000000E+05
     1.016711816406E+04-1.933432579041E+00-9.313225746155E-10 0.000000000000E+00
     1.566518164062E+04-1.400316238403E+00-1.862645149231E-09 3.000000000000E+00
     1.737158349609E+04 2.394601821899E+00-1.862645149231E-09 0.000000000000E+00
R14 2025 01 01 13 15 00 2.751126885414E-05 0.000000000000E+00 3.060000000000E+05
     1.082486474609E+04-2.142906188965E-02-9.313225746155E-10 0.000000000000E+00
    -6.089706542969E+03 3.048711776733E+00 0.000000000000E+00-7.000000000000E+00
     2.228651171875E+04 8.418464660645E-01-2.793967723846E-09 0.000000000000E+00
R04 2025 01 01 13 15 00 2.708230167627E-04 1.818989403546E-12 3.060000000000E+05
     1.679656982422E+04 1.308322906494E+00 9.313225746155E-10 0.000000000000E+00
    -1.527919287109E+04-9.204807281494E-01 1.862645149231E-09 6.000000000000E+00
     1.163230664062E+04-3.108079910278E+00-2.793967723846E-09 0.000000000000E+00
R22 2025 01 01 13 15 00-5.374010652304E-05-1.818989403546E-12 3.060000000000E+05
    -5.464391113281E+03-2.640373229980E+00-3.725290298462E-09 0.000000000000E+00
     9.514085449219E+03-1.715151786804E+00-0.000000000000E+00-3.000000000000E+00
     2.305863867188E+04 8.319187164307E-02-0.000000000000E+00 0.000000000000E+00
R24 2025 01 01 13 15 00-8.641276508570E-05-1.818989403546E-12 3.060000000000E+05
     2.197914843750E+04 1.241044998169E-01 3.725290298462E-09 0.000000000000E+00
     1.295714355469E+04-1.228952407837E-01-1.862645149231E-09 2.000000000000E+00
    -2.944277343750E+02 3.571327209473E+00-2.793967723846E-09 0.000000000000E+00
R05 2025 01 01 13 15 00 1.430800184608E-04 9.094947017729E-13 3.060000000000E+05
     1.782011230469E+03 2.635324478149E+00-1.862645149231E-09 0.000000000000E+00
    -1.254742919922E+04-1.500450134277E+00 9.313225746155E-10 1.000000000000E+00
     2.214363720703E+04-1.065392494202E+00-1.862645149231E-09 0.000000000000E+00
R03 2025 01 01 13 15 00 1.142583787441E-04 0.000000000000E+00 3.060000000000E+05
     2.281752001953E+04-6.945781707764E-01 4.656612873077E-09 0.000000000000E+00
    -1.013065234375E+04 1.838779449463E-01 9.313225746155E-10 5.000000000000E+00
    -5.017441894531E+03-3.502101898193E+00-2.793967723846E-09 0.000000000000E+00
R12 2025 01 01 13 15 00 4.908815026283E-05 9.094947017729E-13 3.060000000000E+05
     2.548718261719E+03 1.406297683716E-01-9.313225746155E-10 0.000000000000E+00
     2.476316064453E+04 7.668647766113E-01-2.793967723846E-09-1.000000000000E+00
     5.614804687500E+03-3.454445838928E+00-0.000000000000E+00 0.000000000000E+00
R15 2025 01 01 13 15 00 7.260497659445E-05-0.000000000000E+00 3.060000000000E+05
     5.965605468750E+03-1.338348388672E-01-0.000000000000E+00 0.000000000000E+00
    -2.166638574219E+04 1.651347160339E+00 1.862645149231E-09 0.000000000000E+00
     1.208502929688E+04 3.028673171997E+00-1.862645149231E-09 0.000000000000E+00
C24 2025 01 01 13 00 00 7.100746734068E-04-1.450928266422E-11 0.000000000000E+00
     1.000000000000E+00 6.390625000000E+00 4.722696719275E-09 8.741311947072E-01
     3.543682396412E-07 9.158439934254E-04 4.645437002182E-06 5.282624927521E+03
     3.060000000000E+05 7.450580596924E-09 1.788143419031E+00 3.725290298462E-08
     9.438301593889E-01 2.574218750000E+02 9.525618712140E-01-7.067437244272E-09
     1.071473202588E-10 0.000000000000E+00 9.910000000000E+02 0.000000000000E+00
     2.000000000000E+00 0.000000000000E+00 4.200000000000E-09 4.200000000000E-09
     3.060180000000E+05 1.000000000000E+00
C44 2025 01 01 13 00 00 6.983650382608E-04 1.102584690216E-11 0.000000000000E+00
     1.000000000000E+00 1.864062500000E+02 3.556576717125E-09-7.358976354903E-02
     9.197741746902E-06 7.139870431274E-04 8.781906217337E-06 5.282631603241E+03
     3.060000000000E+05 3.119930624962E-08-2.434459732608E+00 3.911554813385E-08
     9.497798472172E-01 1.785000000000E+02 5.501978032498E-01-6.689921519227E-09
     6.643133856047E-11 0.000000000000E+00 9.910000000000E+02 0.000000000000E+00
     2.000000000000E+00 0.000000000000E+00-1.200000000000E-09-1.200000000000E-09
     3.060180000000E+05 1.000000000000E+00
C35 2025 01 01 13 00 00 1.656196545810E-04-1.052136155977E-11 0.000000000000E+00
     1.000000000000E+00 1.685625000000E+02 3.569791553290E-09 7.363045490799E-01
     8.445698767900E-06 8.209239458665E-04 8.206814527512E-06 5.282623361588E+03
     3.060000000000E+05-6.752088665962E-08-2.432850453964E+00 2.514570951462E-08
     9.524437595970E-01 1.921406250000E+02 4.451058338846E-01-6.628490388945E-09
     3.464430021702E-11 0.000000000000E+00 9.910000000000E+02 0.000000000000E+00
     2.000000000000E+00 0.000000000000E+00-2.300000000000E-09-2.300000000000E-09
     3.060180000000E+05 1.000000000000E+00
C12 2025 01 01 13 00 00-2.248461823910E-04 6.623146475704E-12 4.065758146821E-20
     1.900000000000E+01 1.927343750000E+02 3.064413359402E-09 1.535858727046E+00
     9.479001164436E-06 1.346421078779E-03 8.246861398220E-06 5.282633628845E+03
     3.060000000000E+05 4.610046744347E-08-2.373003236058E+00-3.166496753693E-08
     9.793065050525E-01 2.030937500000E+02-1.467534491354E+00-6.494199080887E-09
     1.307197307158E-10 0.000000000000E+00 9.910000000000E+02 0.000000000000E+00
     2.000000000000E+00 0.000000000000E+00 3.300000000000E-09 0.000000000000E+00
     3.060180000000E+05 1.800000000000E+01
C25 2025 01 01 13 00 00 6.046462804079E-04 1.068567456741E-11 0.000000000000E+00
     1.000000000000E+00 6.515625000000E+00 4.710196198578E-09 1.609634513796E-01
     4.535540938377E-07 6.781092379242E-04 4.689674824476E-06 5.282648025513E+03
     3.060000000000E+05 4.516914486885E-08 1.764816945950E+00-3.678724169731E-08
     9.453830293750E-01 2.552343750000E+02 8.715877448538E-01-7.085652288716E-09
     1.171477368163E-10 0.000000000000E+00 9.910000000000E+02 0.000000000000E+00
     2.000000000000E+00 0.000000000000E+00 8.000000000000E-10 8.000000000000E-10
     3.060180000000E+05 1.000000000000E+00
C26 2025 01 01 13 00 00-3.995170118287E-04-4.928502050916E-12 0.000000000000E+00
     1.000000000000E+00 8.812500000000E+00 4.638764651739E-09 1.771554794059E+00
     3.566965460777E-07 1.018543727696E-03 4.724599421024E-06 5.282642518997E+03
     3.060000000000E+05-1.955777406693E-08 1.765434320786E+00 1.303851604462E-08
     9.454320049465E-01 2.567343750000E+02 8.245302930649E-01-7.010292006801E-09
     9.750406143553E-11 0.000000000000E+00 9.910000000000E+02 0.000000000000E+00
     2.000000000000E+00 0.000000000000E+00-5.000000000000E-09-5.000000000000E-09
     3.060180000000E+05 1.000000000000E+00
C34 2025 01 01 13 00 00 5.980673013255E-04 8.189005029635E-12 0.000000000000E+00
     1.000000000000E+00 1.867500000000E+02 3.618007847406E-09-9.315334083684E-01
     9.167939424515E-06 5.120007554069E-04 9.253155440092E-06 5.282628999710E+03
     3.060000000000E+05 2.561137080193E-08-2.432812693122E+00-6.519258022308E-09
     9.523687601759E-01 1.687656250000E+02 6.013636600445E-01-6.710279510076E-09
     2.107230631757E-11 0.000000000000E+00 9.910000000000E+02 0.000000000000E+00
     2.000000000000E+00 0.000000000000E+00-5.900000000000E-09-5.900000000000E-09
     3.060180000000E+05 1.000000000000E+00
C41 2025 01 01 13 00 00-8.832489838824E-04 9.068301665138E-13 0.000000000000E+00
     1.000000000000E+00-1.804218750000E+02 3.349068073557E-09-2.594066959450E+00
    -8.848495781422E-06 1.612970372662E-03 5.306676030159E-06 5.282636127472E+03
     3.060000000000E+05 6.472691893578E-08-3.049615003106E-01 1.862645149231E-08
     9.793641528023E-01 2.617343750000E+02-1.377680471270E+00-6.659563111820E-09
    -1.585780339831E-10 0.000000000000E+00 9.910000000000E+02 0.000000000000E+00
     2.000000000000E+00 0.000000000000E+00-2.330000000000E-08-2.330000000000E-08
     3.060180000000E+05 1.000000000000E+00
